<?xml version="1.0" encoding="UTF-8"?>
<ndm xmlns:xsi="http://www.w3.org/2001/XMLSchema-instance" xsi:noNamespaceSchemaLocation="https://sanaregistry.org/r/ndmxml_unqualified/ndmxml-2.0.0-master-2.0.xsd">
<omm id="CCSDS_OMM_VERS" version="2.0">
<header><CREATION_DATE/><ORIGINATOR/></header><body><segment><metadata><OBJECT_NAME>KUIPER-00152</OBJECT_NAME><OBJECT_ID>2025-217L</OBJECT_ID><CENTER_NAME>EARTH</CENTER_NAME><REF_FRAME>TEME</REF_FRAME><TIME_SYSTEM>UTC</TIME_SYSTEM><MEAN_ELEMENT_THEORY>SGP4</MEAN_ELEMENT_THEORY></metadata><data><meanElements><EPOCH>2025-10-18T03:13:02.276832</EPOCH><MEAN_MOTION>15.37216731</MEAN_MOTION><ECCENTRICITY>.0002266</ECCENTRICITY><INCLINATION>51.8740</INCLINATION><RA_OF_ASC_NODE>333.0698</RA_OF_ASC_NODE><ARG_OF_PERICENTER>79.7452</ARG_OF_PERICENTER><MEAN_ANOMALY>280.3790</MEAN_ANOMALY></meanElements><tleParameters><EPHEMERIS_TYPE>0</EPHEMERIS_TYPE><CLASSIFICATION_TYPE>U</CLASSIFICATION_TYPE><NORAD_CAT_ID>65772</NORAD_CAT_ID><ELEMENT_SET_NO>999</ELEMENT_SET_NO><REV_AT_EPOCH>349</REV_AT_EPOCH><BSTAR>.1567E-2</BSTAR><MEAN_MOTION_DOT>.58065E-3</MEAN_MOTION_DOT><MEAN_MOTION_DDOT>0</MEAN_MOTION_DDOT></tleParameters></data></segment></body></omm>
<omm id="CCSDS_OMM_VERS" version="2.0">
<header><CREATION_DATE/><ORIGINATOR/></header><body><segment><metadata><OBJECT_NAME>KUIPER-00153</OBJECT_NAME><OBJECT_ID>2025-217M</OBJECT_ID><CENTER_NAME>EARTH</CENTER_NAME><REF_FRAME>TEME</REF_FRAME><TIME_SYSTEM>UTC</TIME_SYSTEM><MEAN_ELEMENT_THEORY>SGP4</MEAN_ELEMENT_THEORY></metadata><data><meanElements><EPOCH>2025-10-18T03:59:40.309728</EPOCH><MEAN_MOTION>15.35031896</MEAN_MOTION><ECCENTRICITY>.0008136</ECCENTRICITY><INCLINATION>51.8648</INCLINATION><RA_OF_ASC_NODE>333.2770</RA_OF_ASC_NODE><ARG_OF_PERICENTER>184.1455</ARG_OF_PERICENTER><MEAN_ANOMALY>175.9465</MEAN_ANOMALY></meanElements><tleParameters><EPHEMERIS_TYPE>0</EPHEMERIS_TYPE><CLASSIFICATION_TYPE>U</CLASSIFICATION_TYPE><NORAD_CAT_ID>65773</NORAD_CAT_ID><ELEMENT_SET_NO>999</ELEMENT_SET_NO><REV_AT_EPOCH>349</REV_AT_EPOCH><BSTAR>.14434E-2</BSTAR><MEAN_MOTION_DOT>.498E-3</MEAN_MOTION_DOT><MEAN_MOTION_DDOT>0</MEAN_MOTION_DDOT></tleParameters></data></segment></body></omm>
<omm id="CCSDS_OMM_VERS" version="2.0">
<header><CREATION_DATE/><ORIGINATOR/></header><body><segment><metadata><OBJECT_NAME>KUIPER-00155</OBJECT_NAME><OBJECT_ID>2025-217N</OBJECT_ID><CENTER_NAME>EARTH</CENTER_NAME><REF_FRAME>TEME</REF_FRAME><TIME_SYSTEM>UTC</TIME_SYSTEM><MEAN_ELEMENT_THEORY>SGP4</MEAN_ELEMENT_THEORY></metadata><data><meanElements><EPOCH>2025-10-18T03:43:48.089280</EPOCH><MEAN_MOTION>15.35796369</MEAN_MOTION><ECCENTRICITY>.0005428</ECCENTRICITY><INCLINATION>51.8670</INCLINATION><RA_OF_ASC_NODE>333.2104</RA_OF_ASC_NODE><ARG_OF_PERICENTER>169.3187</ARG_OF_PERICENTER><MEAN_ANOMALY>190.7915</MEAN_ANOMALY></meanElements><tleParameters><EPHEMERIS_TYPE>0</EPHEMERIS_TYPE><CLASSIFICATION_TYPE>U</CLASSIFICATION_TYPE><NORAD_CAT_ID>65774</NORAD_CAT_ID><ELEMENT_SET_NO>999</ELEMENT_SET_NO><REV_AT_EPOCH>349</REV_AT_EPOCH><BSTAR>.15076E-2</BSTAR><MEAN_MOTION_DOT>.53325E-3</MEAN_MOTION_DOT><MEAN_MOTION_DDOT>0</MEAN_MOTION_DDOT></tleParameters></data></segment></body></omm>
<omm id="CCSDS_OMM_VERS" version="2.0">
<header><CREATION_DATE/><ORIGINATOR/></header><body><segment><metadata><OBJECT_NAME>KUIPER-00156</OBJECT_NAME><OBJECT_ID>2025-217P</OBJECT_ID><CENTER_NAME>EARTH</CENTER_NAME><REF_FRAME>TEME</REF_FRAME><TIME_SYSTEM>UTC</TIME_SYSTEM><MEAN_ELEMENT_THEORY>SGP4</MEAN_ELEMENT_THEORY></metadata><data><meanElements><EPOCH>2025-10-18T03:19:24.565728</EPOCH><MEAN_MOTION>15.36950998</MEAN_MOTION><ECCENTRICITY>.0002306</ECCENTRICITY><INCLINATION>51.8735</INCLINATION><RA_OF_ASC_NODE>333.1025</RA_OF_ASC_NODE><ARG_OF_PERICENTER>110.4750</ARG_OF_PERICENTER><MEAN_ANOMALY>249.6484</MEAN_ANOMALY></meanElements><tleParameters><EPHEMERIS_TYPE>0</EPHEMERIS_TYPE><CLASSIFICATION_TYPE>U</CLASSIFICATION_TYPE><NORAD_CAT_ID>65775</NORAD_CAT_ID><ELEMENT_SET_NO>999</ELEMENT_SET_NO><REV_AT_EPOCH>349</REV_AT_EPOCH><BSTAR>.17531E-2</BSTAR><MEAN_MOTION_DOT>.64504E-3</MEAN_MOTION_DOT><MEAN_MOTION_DDOT>0</MEAN_MOTION_DDOT></tleParameters></data></segment></body></omm>
<omm id="CCSDS_OMM_VERS" version="2.0">
<header><CREATION_DATE/><ORIGINATOR/></header><body><segment><metadata><OBJECT_NAME>KUIPER-00158</OBJECT_NAME><OBJECT_ID>2025-217Q</OBJECT_ID><CENTER_NAME>EARTH</CENTER_NAME><REF_FRAME>TEME</REF_FRAME><TIME_SYSTEM>UTC</TIME_SYSTEM><MEAN_ELEMENT_THEORY>SGP4</MEAN_ELEMENT_THEORY></metadata><data><meanElements><EPOCH>2025-10-18T03:39:10.867104</EPOCH><MEAN_MOTION>15.35968969</MEAN_MOTION><ECCENTRICITY>.0005252</ECCENTRICITY><INCLINATION>51.8708</INCLINATION><RA_OF_ASC_NODE>333.1931</RA_OF_ASC_NODE><ARG_OF_PERICENTER>165.8497</ARG_OF_PERICENTER><MEAN_ANOMALY>194.2637</MEAN_ANOMALY></meanElements><tleParameters><EPHEMERIS_TYPE>0</EPHEMERIS_TYPE><CLASSIFICATION_TYPE>U</CLASSIFICATION_TYPE><NORAD_CAT_ID>65776</NORAD_CAT_ID><ELEMENT_SET_NO>999</ELEMENT_SET_NO><REV_AT_EPOCH>349</REV_AT_EPOCH><BSTAR>.12838E-2</BSTAR><MEAN_MOTION_DOT>.45555E-3</MEAN_MOTION_DOT><MEAN_MOTION_DDOT>0</MEAN_MOTION_DDOT></tleParameters></data></segment></body></omm>
<omm id="CCSDS_OMM_VERS" version="2.0">
<header><CREATION_DATE/><ORIGINATOR/></header><body><segment><metadata><OBJECT_NAME>KUIPER-00163</OBJECT_NAME><OBJECT_ID>2025-217R</OBJECT_ID><CENTER_NAME>EARTH</CENTER_NAME><REF_FRAME>TEME</REF_FRAME><TIME_SYSTEM>UTC</TIME_SYSTEM><MEAN_ELEMENT_THEORY>SGP4</MEAN_ELEMENT_THEORY></metadata><data><meanElements><EPOCH>2025-10-18T03:56:36.547296</EPOCH><MEAN_MOTION>15.35189140</MEAN_MOTION><ECCENTRICITY>.0007571</ECCENTRICITY><INCLINATION>51.8635</INCLINATION><RA_OF_ASC_NODE>333.2609</RA_OF_ASC_NODE><ARG_OF_PERICENTER>184.3924</ARG_OF_PERICENTER><MEAN_ANOMALY>175.6996</MEAN_ANOMALY></meanElements><tleParameters><EPHEMERIS_TYPE>0</EPHEMERIS_TYPE><CLASSIFICATION_TYPE>U</CLASSIFICATION_TYPE><NORAD_CAT_ID>65777</NORAD_CAT_ID><ELEMENT_SET_NO>999</ELEMENT_SET_NO><REV_AT_EPOCH>349</REV_AT_EPOCH><BSTAR>.13517E-2</BSTAR><MEAN_MOTION_DOT>.46823E-3</MEAN_MOTION_DOT><MEAN_MOTION_DDOT>0</MEAN_MOTION_DDOT></tleParameters></data></segment></body></omm>
<omm id="CCSDS_OMM_VERS" version="2.0">
<header><CREATION_DATE/><ORIGINATOR/></header><body><segment><metadata><OBJECT_NAME>KUIPER-00165</OBJECT_NAME><OBJECT_ID>2025-217S</OBJECT_ID><CENTER_NAME>EARTH</CENTER_NAME><REF_FRAME>TEME</REF_FRAME><TIME_SYSTEM>UTC</TIME_SYSTEM><MEAN_ELEMENT_THEORY>SGP4</MEAN_ELEMENT_THEORY></metadata><data><meanElements><EPOCH>2025-10-18T03:30:18.777024</EPOCH><MEAN_MOTION>15.36442603</MEAN_MOTION><ECCENTRICITY>.0004006</ECCENTRICITY><INCLINATION>51.8711</INCLINATION><RA_OF_ASC_NODE>333.1530</RA_OF_ASC_NODE><ARG_OF_PERICENTER>141.9277</ARG_OF_PERICENTER><MEAN_ANOMALY>218.1993</MEAN_ANOMALY></meanElements><tleParameters><EPHEMERIS_TYPE>0</EPHEMERIS_TYPE><CLASSIFICATION_TYPE>U</CLASSIFICATION_TYPE><NORAD_CAT_ID>65778</NORAD_CAT_ID><ELEMENT_SET_NO>999</ELEMENT_SET_NO><REV_AT_EPOCH>349</REV_AT_EPOCH><BSTAR>.12021E-2</BSTAR><MEAN_MOTION_DOT>.43271E-3</MEAN_MOTION_DOT><MEAN_MOTION_DDOT>0</MEAN_MOTION_DDOT></tleParameters></data></segment></body></omm>
<omm id="CCSDS_OMM_VERS" version="2.0">
<header><CREATION_DATE/><ORIGINATOR/></header><body><segment><metadata><OBJECT_NAME>KUIPER-00166</OBJECT_NAME><OBJECT_ID>2025-217T</OBJECT_ID><CENTER_NAME>EARTH</CENTER_NAME><REF_FRAME>TEME</REF_FRAME><TIME_SYSTEM>UTC</TIME_SYSTEM><MEAN_ELEMENT_THEORY>SGP4</MEAN_ELEMENT_THEORY></metadata><data><meanElements><EPOCH>2025-10-18T03:23:52.022112</EPOCH><MEAN_MOTION>15.36751157</MEAN_MOTION><ECCENTRICITY>.0003408</ECCENTRICITY><INCLINATION>51.8724</INCLINATION><RA_OF_ASC_NODE>333.1244</RA_OF_ASC_NODE><ARG_OF_PERICENTER>118.0315</ARG_OF_PERICENTER><MEAN_ANOMALY>242.1017</MEAN_ANOMALY></meanElements><tleParameters><EPHEMERIS_TYPE>0</EPHEMERIS_TYPE><CLASSIFICATION_TYPE>U</CLASSIFICATION_TYPE><NORAD_CAT_ID>65779</NORAD_CAT_ID><ELEMENT_SET_NO>999</ELEMENT_SET_NO><REV_AT_EPOCH>349</REV_AT_EPOCH><BSTAR>.15276E-2</BSTAR><MEAN_MOTION_DOT>.55732E-3</MEAN_MOTION_DOT><MEAN_MOTION_DDOT>0</MEAN_MOTION_DDOT></tleParameters></data></segment></body></omm>

</ndm>
