KUIPER-00152            
1 65772U 25217L   25291.13405413  .00058065  00000+0  15670-2 0  9998
2 65772  51.8740 333.0698 0002266  79.7452 280.3790 15.37216731  3497
KUIPER-00153            
1 65773U 25217M   25291.16643877  .00049800  00000+0  14434-2 0  9994
2 65773  51.8648 333.2770 0008136 184.1455 175.9465 15.35031896  3497
KUIPER-00155            
1 65774U 25217N   25291.15541770  .00053325  00000+0  15076-2 0  9993
2 65774  51.8670 333.2104 0005428 169.3187 190.7915 15.35796369  3490
KUIPER-00156            
1 65775U 25217P   25291.13847877  .00064504  00000+0  17531-2 0  9998
2 65775  51.8735 333.1025 0002306 110.4750 249.6484 15.36950998  3495
KUIPER-00158            
1 65776U 25217Q   25291.15220911  .00045555  00000+0  12838-2 0  9995
2 65776  51.8708 333.1931 0005252 165.8497 194.2637 15.35968969  3498
KUIPER-00163            
1 65777U 25217R   25291.16431189  .00046823  00000+0  13517-2 0  9992
2 65777  51.8635 333.2609 0007571 184.3924 175.6996 15.35189140  3495
KUIPER-00165            
1 65778U 25217S   25291.14605066  .00043271  00000+0  12021-2 0  9991
2 65778  51.8711 333.1530 0004006 141.9277 218.1993 15.36442603  3490
KUIPER-00166            
1 65779U 25217T   25291.14157433  .00055732  00000+0  15276-2 0  9992
2 65779  51.8724 333.1244 0003408 118.0315 242.1017 15.36751157  3491
